{
  "type": "FeatureCollection",
  "features": [
    {
      "type": "Feature",
      "properties": {
        "norad_id": 41877,
        "name": "RESOURCESAT-2A",
        "group": "resource",
        "lat": 55.22249462857325,
        "lon": -114.06808544040972,
        "alt_km": 815.3858893857023,
        "timestamp": "2025-12-09T04:51:47.165007+00:00",
        "meta_object_name": "RESOURCESAT-2A",
        "meta_object_id": "2016-074A",
        "meta_epoch": "2025-12-08T19:50:13.373952",
        "meta_mean_motion": 14.21597262,
        "meta_eccentricity": 0.0001139,
        "meta_inclination": 98.7759,
        "meta_ra_of_asc_node": 52.7052,
        "meta_arg_of_pericenter": 276.4824,
        "meta_mean_anomaly": 83.6223,
        "meta_ephemeris_type": 0,
        "meta_classification_type": "U",
        "meta_norad_cat_id": 41877,
        "meta_element_set_no": 999,
        "meta_rev_at_epoch": 46725,
        "meta_bstar": 0.00020956,
        "meta_mean_motion_dot": 4.15e-06,
        "meta_mean_motion_ddot": 0,
        "tle_line1": "1 41877U 16074A   25342.82654368  .00000415  00000+0  20956-3 0  9997",
        "tle_line2": "2 41877  98.7759  52.7052 0001139 276.4824  83.6223 14.21597262467259"
      },
      "geometry": {
        "type": "Point",
        "coordinates": [
          -114.06808544040972,
          55.22249462857325
        ]
      }
    },
    {
      "type": "Feature",
      "properties": {
        "norad_id": 41948,
        "name": "CARTOSAT-2D",
        "group": "resource",
        "lat": -30.795741169175702,
        "lon": 45.21972540227886,
        "alt_km": 517.0192062742544,
        "timestamp": "2025-12-09T04:51:47.165017+00:00",
        "meta_object_name": "CARTOSAT-2D",
        "meta_object_id": "2017-008A",
        "meta_epoch": "2025-12-08T19:30:54.074304",
        "meta_mean_motion": 15.1919472,
        "meta_eccentricity": 0.0004237,
        "meta_inclination": 97.4391,
        "meta_ra_of_asc_node": 40.3696,
        "meta_arg_of_pericenter": 173.9288,
        "meta_mean_anomaly": 186.1998,
        "meta_ephemeris_type": 0,
        "meta_classification_type": "U",
        "meta_norad_cat_id": 41948,
        "meta_element_set_no": 999,
        "meta_rev_at_epoch": 48867,
        "meta_bstar": 0.00024343,
        "meta_mean_motion_dot": 5.056e-05,
        "meta_mean_motion_ddot": 0,
        "tle_line1": "1 41948U 17008A   25342.81312586  .00005056  00000+0  24343-3 0  9996",
        "tle_line2": "2 41948  97.4391  40.3696 0004237 173.9288 186.1998 15.19194720488677"
      },
      "geometry": {
        "type": "Point",
        "coordinates": [
          45.21972540227886,
          -30.795741169175702
        ]
      }
    },
    {
      "type": "Feature",
      "properties": {
        "norad_id": 42063,
        "name": "SENTINEL-2B",
        "group": "resource",
        "lat": -24.664715430138354,
        "lon": 59.66978031695334,
        "alt_km": 794.9007685067318,
        "timestamp": "2025-12-09T04:51:47.165027+00:00",
        "meta_object_name": "SENTINEL-2B",
        "meta_object_id": "2017-013A",
        "meta_epoch": "2025-12-08T20:35:16.360800",
        "meta_mean_motion": 14.30812951,
        "meta_eccentricity": 0.000114,
        "meta_inclination": 98.572,
        "meta_ra_of_asc_node": 55.3582,
        "meta_arg_of_pericenter": 92.627,
        "meta_mean_anomaly": 267.5043,
        "meta_ephemeris_type": 0,
        "meta_classification_type": "U",
        "meta_norad_cat_id": 42063,
        "meta_element_set_no": 999,
        "meta_rev_at_epoch": 45742,
        "meta_bstar": 3.648e-05,
        "meta_mean_motion_dot": 5.2e-07,
        "meta_mean_motion_ddot": 0,
        "tle_line1": "1 42063U 17013A   25342.85782825  .00000052  00000+0  36480-4 0  9999",
        "tle_line2": "2 42063  98.5720  55.3582 0001140  92.6270 267.5043 14.30812951457421"
      },
      "geometry": {
        "type": "Point",
        "coordinates": [
          59.66978031695334,
          -24.664715430138354
        ]
      }
    },
    {
      "type": "Feature",
      "properties": {
        "norad_id": 42767,
        "name": "CARTOSAT-2E",
        "group": "resource",
        "lat": -58.84966797114312,
        "lon": -151.67873111440656,
        "alt_km": 513.6936368591341,
        "timestamp": "2025-12-09T04:51:47.165037+00:00",
        "meta_object_name": "CARTOSAT-2E",
        "meta_object_id": "2017-036C",
        "meta_epoch": "2025-12-08T21:29:18.742848",
        "meta_mean_motion": 15.19259687,
        "meta_eccentricity": 0.0002322,
        "meta_inclination": 97.456,
        "meta_ra_of_asc_node": 40.5314,
        "meta_arg_of_pericenter": 257.8577,
        "meta_mean_anomaly": 102.2397,
        "meta_ephemeris_type": 0,
        "meta_classification_type": "U",
        "meta_norad_cat_id": 42767,
        "meta_element_set_no": 999,
        "meta_rev_at_epoch": 46925,
        "meta_bstar": 0.00024674,
        "meta_mean_motion_dot": 5.134e-05,
        "meta_mean_motion_ddot": 0,
        "tle_line1": "1 42767U 17036C   25342.89535582  .00005134  00000+0  24674-3 0  9992",
        "tle_line2": "2 42767  97.4560  40.5314 0002322 257.8577 102.2397 15.19259687469259"
      },
      "geometry": {
        "type": "Point",
        "coordinates": [
          -151.67873111440656,
          -58.84966797114312
        ]
      }
    },
    {
      "type": "Feature",
      "properties": {
        "norad_id": 42920,
        "name": "FORMOSAT-5",
        "group": "resource",
        "lat": 77.58192995737139,
        "lon": 16.4022384063581,
        "alt_km": 719.9508327589638,
        "timestamp": "2025-12-09T04:51:47.165050+00:00",
        "meta_object_name": "FORMOSAT-5",
        "meta_object_id": "2017-049A",
        "meta_epoch": "2025-12-08T18:33:45.363744",
        "meta_mean_motion": 14.5100223,
        "meta_eccentricity": 0.0010043,
        "meta_inclination": 98.2456,
        "meta_ra_of_asc_node": 57.1711,
        "meta_arg_of_pericenter": 308.9854,
        "meta_mean_anomaly": 51.0445,
        "meta_ephemeris_type": 0,
        "meta_classification_type": "U",
        "meta_norad_cat_id": 42920,
        "meta_element_set_no": 999,
        "meta_rev_at_epoch": 43906,
        "meta_bstar": 0.00014729,
        "meta_mean_motion_dot": 5.39e-06,
        "meta_mean_motion_ddot": 0,
        "tle_line1": "1 42920U 17049A   25342.77344171  .00000539  00000+0  14729-3 0  9990",
        "tle_line2": "2 42920  98.2456  57.1711 0010043 308.9854  51.0445 14.51002230439069"
      },
      "geometry": {
        "type": "Point",
        "coordinates": [
          16.4022384063581,
          77.58192995737139
        ]
      }
    },
    {
      "type": "Feature",
      "properties": {
        "norad_id": 42969,
        "name": "SENTINEL-5P",
        "group": "resource",
        "lat": 23.21802851947852,
        "lon": 105.61855891873464,
        "alt_km": 826.2461886825058,
        "timestamp": "2025-12-09T04:51:47.165060+00:00",
        "meta_object_name": "SENTINEL-5P",
        "meta_object_id": "2017-064A",
        "meta_epoch": "2025-12-08T19:40:13.954080",
        "meta_mean_motion": 14.19516133,
        "meta_eccentricity": 9.54e-05,
        "meta_inclination": 98.7779,
        "meta_ra_of_asc_node": 281.4386,
        "meta_arg_of_pericenter": 87.1183,
        "meta_mean_anomaly": 273.0102,
        "meta_ephemeris_type": 0,
        "meta_classification_type": "U",
        "meta_norad_cat_id": 42969,
        "meta_element_set_no": 999,
        "meta_rev_at_epoch": 42255,
        "meta_bstar": 0.00011662,
        "meta_mean_motion_dot": 2.02e-06,
        "meta_mean_motion_ddot": 0,
        "tle_line1": "1 42969U 17064A   25342.81960595  .00000202  00000+0  11662-3 0  9999",
        "tle_line2": "2 42969  98.7779 281.4386 0000954  87.1183 273.0102 14.19516133422554"
      },
      "geometry": {
        "type": "Point",
        "coordinates": [
          105.61855891873464,
          23.21802851947852
        ]
      }
    },
    {
      "type": "Feature",
      "properties": {
        "norad_id": 42987,
        "name": "SKYSAT-C11",
        "group": "resource",
        "lat": 81.15591711610138,
        "lon": 63.78606771959556,
        "alt_km": 416.84172790602497,
        "timestamp": "2025-12-09T04:51:47.165070+00:00",
        "meta_object_name": "SKYSAT-C11",
        "meta_object_id": "2017-068A",
        "meta_epoch": "2025-12-08T08:19:03.552096",
        "meta_mean_motion": 15.4717093,
        "meta_eccentricity": 9.299e-05,
        "meta_inclination": 97.4146,
        "meta_ra_of_asc_node": 119.7309,
        "meta_arg_of_pericenter": 106.2293,
        "meta_mean_anomaly": 253.9059,
        "meta_ephemeris_type": 0,
        "meta_classification_type": "U",
        "meta_norad_cat_id": 42987,
        "meta_element_set_no": 999,
        "meta_rev_at_epoch": 45363,
        "meta_bstar": 0.00053513536,
        "meta_mean_motion_dot": 0.00027139,
        "meta_mean_motion_ddot": 0,
        "tle_line1": "1 42987U 17068A   25342.34656889  .00027139  00000+0  53514-3 0  9999",
        "tle_line2": "2 42987  97.4146 119.7309 0000929 106.2293 253.9059 15.47170930453637"
      },
      "geometry": {
        "type": "Point",
        "coordinates": [
          63.78606771959556,
          81.15591711610138
        ]
      }
    }
  ]
}